OBJECT_NAME,OBJECT_ID,EPOCH,MEAN_MOTION,ECCENTRICITY,INCLINATION,RA_OF_ASC_NODE,ARG_OF_PERICENTER,MEAN_ANOMALY,EPHEMERIS_TYPE,CLASSIFICATION_TYPE,NORAD_CAT_ID,ELEMENT_SET_NO,REV_AT_EPOCH,BSTAR,MEAN_MOTION_DOT,MEAN_MOTION_DDOT
STARLINK-11187 [DTC],2024-124B,2026-06-27T04:28:04.996416,15.69711340,.00008851,53.1607,341.3409,81.3474,278.7644,0,U,60184,999,11373,.4318902E-5,-.65E-6,0
STARLINK-11180 [DTC],2024-124C,2026-06-27T04:21:00.584064,15.69697571,.00002683,53.1572,341.3100,76.7607,283.3441,0,U,60185,999,11373,.49376515E-4,.5395E-4,0
STARLINK-11197 [DTC],2024-124D,2026-06-27T04:13:57.346752,15.69712312,.0000808,53.1582,341.2743,88.8700,271.2410,0,U,60186,999,11373,.9421013E-5,.553E-5,0
STARLINK-11194 [DTC],2024-124E,2026-06-27T04:06:53.631648,15.69711299,.00008387,53.1584,341.2397,80.4215,279.6898,0,U,60187,999,11373,.2072157E-5,-.337E-5,0
STARLINK-11189 [DTC],2024-124F,2026-06-27T03:59:58.353504,15.69709679,.00004874,53.1593,341.9421,163.7522,196.3511,0,U,60188,999,11372,.1398032E-5,-.418E-5,0
STARLINK-11183 [DTC],2024-124G,2026-06-27T03:52:54.677280,15.69712869,.00005763,53.1602,341.9084,135.7985,224.3079,0,U,60189,999,11372,.1499312E-5,-.406E-5,0
STARLINK-11179 [DTC],2024-124H,2026-06-27T03:45:51.246432,15.69709006,.00011457,53.1601,341.8762,78.2119,281.9027,0,U,60190,999,11372,-.323256E-5,-.98E-5,0
STARLINK-11175 [DTC],2024-124J,2026-06-26T21:32:04.953984,15.69841780,.0000785,53.1592,343.0994,149.8299,210.2765,0,U,60191,999,11368,-.18114E-3,-.22594E-3,0
STARLINK-11173 [DTC],2024-124K,2026-06-26T21:24:57.432096,15.69833900,.0000588,53.1590,343.0660,108.6686,251.4395,0,U,60192,999,11368,-.18044E-3,-.22501E-3,0
STARLINK-11172 [DTC],2024-124L,2026-06-26T21:17:54.332160,15.69726337,.0000906,53.1586,343.0340,77.9990,282.1129,0,U,60193,999,11368,.85922E-5,.453E-5,0
STARLINK-11152 [DTC],2024-124M,2026-06-26T21:10:50.875392,15.69723009,.0001065,53.1600,343.0005,80.9191,279.1947,0,U,60194,999,11487,.24458E-4,.2377E-4,0
STARLINK-11193 [DTC],2024-124N,2026-06-26T21:03:47.177568,15.69718919,.0000953,53.1605,342.9674,90.3789,269.7338,0,U,60195,999,11368,.77748E-5,.354E-5,0
STARLINK-31869,2024-124P,2026-06-27T06:45:37.407744,15.31701139,.00013338,53.1595,172.8240,93.4939,266.6215,0,U,60196,999,11108,.99341064E-4,.2719E-4,0
STARLINK-32023,2024-124Q,2026-06-27T06:14:08.054880,15.34382828,.0001189,53.1584,171.9793,74.7339,285.3795,0,U,60197,999,11109,-.50400544E-4,-.2078E-4,0
STARLINK-32046,2024-124R,2026-06-27T07:12:30.026592,15.31695040,.00010685,53.1589,172.9303,84.5137,275.5987,0,U,60198,999,11231,-.57495556E-4,-.2148E-4,0
STARLINK-32049,2024-124S,2026-06-27T06:32:18.444480,15.34398211,.00011371,53.1590,172.0569,93.6602,266.4531,0,U,60199,999,11232,-.33125501E-4,-.1495E-4,0
STARLINK-32002,2024-124T,2026-06-27T06:52:20.303904,15.31700480,.00011671,53.1596,172.8504,98.0933,262.0200,0,U,60200,999,11108,.953564E-5,-.69E-6,0
STARLINK-32020,2024-124U,2026-06-27T06:59:03.561216,15.31699253,.00010958,53.1590,172.8736,98.6792,261.4334,0,U,60201,999,11108,-.8511183E-5,-.629E-5,0
STARLINK-32041,2024-124V,2026-06-27T07:05:46.819392,15.31699850,.00012181,53.1588,172.9035,103.3936,256.7202,0,U,60202,999,11228,-.14594538E-4,-.818E-5,0
STARLINK-32138,2024-131A,2026-06-26T22:47:56.307264,15.31697173,.00009336,53.1599,264.4513,92.9041,267.2067,0,U,60255,999,10875,.46258979E-4,.1071E-4,0
STARLINK-32212,2024-131B,2026-06-26T22:52:55.248672,15.30187055,.00012095,53.1602,265.1921,97.2920,262.8218,0,U,60256,999,10844,-.14461548E-4,-.787E-5,0
STARLINK-32166,2024-131C,2026-06-26T23:02:02.596992,15.30181962,.00013254,53.1601,265.2194,96.8908,263.2243,0,U,60257,999,10844,-.69282959E-4,-.2409E-4,0
STARLINK-32200,2024-131D,2026-06-26T22:49:52.907520,15.30193071,.00011932,53.1607,265.1666,94.7352,265.3785,0,U,60258,999,10844,-.67753975E-4,-.2365E-4,0
STARLINK-32207,2024-131E,2026-06-26T22:46:50.774592,15.30185334,.00012772,53.1619,265.1635,79.4275,280.6870,0,U,60259,999,10844,-.17871223E-4,-.888E-5,0
STARLINK-32125,2024-131F,2026-06-26T12:09:34.776864,15.30185337,.0001033,53.1588,266.6621,87.0675,273.0444,0,U,60260,999,10838,-.26083E-4,-.1131E-4,0
STARLINK-32160,2024-131G,2026-06-26T22:54:25.066656,15.30202426,.00011225,53.1607,265.1803,89.3894,270.7236,0,U,60261,999,10849,.66838246E-4,.1621E-4,0
STARLINK-32163,2024-131H,2026-06-26T12:50:33.700128,15.31710503,.0000997,53.1595,266.1237,51.5470,308.5621,0,U,60262,999,10839,-.10856E-3,-.3733E-4,0
STARLINK-32148,2024-131J,2026-06-26T22:00:01.998720,15.31715556,.0001097,53.1597,264.7027,90.7321,34.3339,0,U,60263,999,587,-.52377E-3,-.1659E-3,0
STARLINK-32121,2024-131K,2026-06-26T15:44:41.210592,15.31692580,.00010718,53.1592,266.1690,105.2174,254.8946,0,U,60264,999,10845,.10764259E-3,.2976E-4,0
STARLINK-32120,2024-131L,2026-06-26T15:31:18.285024,15.29359294,.00013545,53.1605,266.8177,92.2548,267.8608,0,U,60265,999,10844,.22003663E-4,.279E-5,0
STARLINK-32205,2024-131M,2026-06-26T23:28:15.919392,15.31693227,.00012153,53.1601,264.6326,91.5681,268.5460,0,U,60266,999,10845,-.15983892E-4,-.861E-5,0
STARLINK-32158,2024-131N,2026-06-26T23:30:44.418528,15.30199084,.00014043,53.1597,264.6264,96.7449,263.3712,0,U,60267,999,10835,-.93676774E-4,-.3132E-4,0
STARLINK-32167,2024-131P,2026-06-26T23:09:28.435680,15.30185559,.00010244,53.1610,264.5518,88.8713,271.2405,0,U,60268,999,10844,-.19847084E-4,-.946E-5,0
STARLINK-32144,2024-131Q,2026-06-26T22:27:45.877824,15.31694838,.0000959,53.1604,264.3580,84.2143,275.8968,0,U,60269,999,10850,.10607E-4,-.36E-6,0
STARLINK-32211,2024-131R,2026-06-26T22:57:28.794528,15.30183584,.00009778,53.1603,265.2083,113.6859,246.4245,0,U,60270,999,10844,-.17067119E-4,-.864E-5,0
STARLINK-32164,2024-131S,2026-06-26T23:03:33.359328,15.30184527,.000123,53.1595,265.2221,87.9830,272.1312,0,U,60271,999,10834,-.1167474E-5,-.394E-5,0
STARLINK-32128,2024-131T,2026-06-26T23:26:11.359104,15.30185266,.0001106,53.1594,264.6140,85.9349,274.1778,0,U,60272,999,10845,-.9257532E-5,-.633E-5,0
STARLINK-32206,2024-131U,2026-06-26T22:48:21.764160,15.30185497,.00016034,53.1629,265.1647,97.2108,262.9075,0,U,60273,999,10844,-.1100885E-4,-.685E-5,0
STARLINK-32155,2024-131V,2026-06-26T15:31:44.444352,15.31695555,.00016092,53.1593,266.1105,57.3192,302.7965,0,U,60274,999,10830,.2487859E-5,-.288E-5,0
STARLINK-32152,2024-131W,2026-06-26T23:21:35.697312,15.30204840,.00013351,53.1595,264.5868,100.8827,259.2324,0,U,60275,999,10835,.67613403E-4,.1644E-4,0
STARLINK-32154,2024-131X,2026-06-26T23:12:30.647232,15.30185914,.00010311,53.1603,264.5485,87.6005,272.5113,0,U,60276,999,10845,-.3762448E-4,-.1473E-4,0
STARLINK-32135,2024-131Y,2026-06-26T12:38:27.323232,15.30156338,.0001336,53.1600,266.7808,96.8645,263.2508,0,U,60277,999,10838,.21163E-3,.5905E-4,0
STARLINK-32156,2024-132A,2026-06-26T23:23:10.241376,15.30207796,.00013958,53.1604,264.7232,103.2804,256.8352,0,U,60278,999,10951,-.18495194E-3,-.5834E-4,0
STARLINK-32010,2024-132B,2026-06-26T23:00:55.973952,15.31671404,.00007014,53.1600,264.6348,46.7596,313.3463,0,U,60279,999,10829,.15461581E-3,.4432E-4,0
STARLINK-32118,2024-132C,2026-06-26T15:23:47.412672,15.30189041,.00012766,53.1602,266.2001,99.1261,260.9885,0,U,60280,999,10824,-.563098E-5,-.526E-5,0
STARLINK-32038,2024-132D,2026-06-26T15:26:50.004384,15.30186090,.00010482,53.1602,266.2137,71.7084,288.4030,0,U,60281,999,10824,-.69913738E-4,-.2428E-4,0
STARLINK-32113,2024-132E,2026-06-26T15:28:21.235008,15.30183520,.00011503,53.1597,266.2232,88.0322,272.0810,0,U,60282,999,10824,-.37361195E-4,-.1465E-4,0
STARLINK-32037,2024-132F,2026-06-26T12:16:38.124768,15.31694394,.0000814,53.1604,266.8150,96.7809,263.3285,0,U,60283,999,10822,-.69321E-4,-.2515E-4,0
STARLINK-32123,2024-132G,2026-06-26T22:18:44.756352,15.30175476,.0001276,53.1601,252.3848,98.8334,261.2811,0,U,60284,999,10846,-.2106E-4,-.982E-5,0
STARLINK-32122,2024-132H,2026-06-26T12:39:59.236416,15.30198652,.0000922,53.1584,266.9139,81.2063,278.9042,0,U,60285,999,10822,-.69348E-5,-.564E-5,0
STARLINK-31656,2024-132J,2026-06-26T23:04:56.640288,15.30185103,.00011243,53.1601,264.6535,90.5384,269.5745,0,U,60286,999,10829,-.32172548E-4,-.1311E-4,0
STARLINK-32114,2024-132K,2026-06-27T00:55:02.482752,15.31704396,.00010068,53.1591,264.4118,91.6416,268.4700,0,U,60287,999,10830,-.99353997E-4,-.3447E-4,0
STARLINK-31997,2024-132L,2026-06-27T06:41:31.801056,15.30197781,.00012337,53.1622,263.0591,99.6604,260.4536,0,U,60288,999,10834,-.83871065E-4,-.2842E-4,0
STARLINK-32000,2024-132M,2026-06-26T14:44:13.305696,15.31698388,.00013,53.1617,266.0379,111.5274,248.5866,0,U,60289,999,10824,.16922E-6,-.36E-5,0
STARLINK-32141,2024-132N,2026-06-26T23:29:15.385056,15.30185413,.0001288,53.1601,264.7508,91.6491,268.4658,0,U,60290,999,10829,-.346249E-5,-.462E-5,0
STARLINK-32142,2024-132P,2026-06-26T22:58:51.822336,15.30185583,.00011346,53.1596,264.6149,82.0261,278.0869,0,U,60291,999,10829,-.35382839E-4,-.1406E-4,0
STARLINK-32149,2024-132Q,2026-06-26T23:08:05.778528,15.31702707,.00005816,53.1592,264.6634,70.7404,289.3661,0,U,60292,999,10829,.29285843E-4,.544E-5,0
STARLINK-32159,2024-132R,2026-06-26T15:05:33.111744,15.30184113,.00010469,53.1592,266.1190,111.6607,248.4505,0,U,60293,999,10824,-.3240132E-5,-.455E-5,0
STARLINK-32150,2024-132S,2026-06-26T12:17:07.360800,15.31691452,.0001055,53.1595,266.8185,92.1585,267.9537,0,U,60294,999,10822,-.58215E-4,-.217E-4,0
STARLINK-32126,2024-132T,2026-06-26T22:54:40.540032,15.31713354,.00011917,53.1615,264.6013,97.1475,262.9662,0,U,60295,999,10829,-.12226354E-3,-.4159E-4,0
STARLINK-32143,2024-132U,2026-06-26T22:41:14.264736,15.31697157,.00012121,53.1616,264.5458,85.6121,274.5018,0,U,60296,999,10829,.812879E-5,-.113E-5,0
STARLINK-32034,2024-132V,2026-06-26T16:04:45.760512,15.31692065,.00009592,53.1601,265.6704,111.2910,248.8194,0,U,60297,999,10825,-.16492121E-4,-.876E-5,0
STARLINK-32124,2024-132W,2026-06-26T13:10:45.037632,15.31695062,.00011406,53.1598,266.3417,114.6410,245.4710,0,U,60298,999,10823,-.13111487E-4,-.772E-5,0
